IRIDIUM 166             
1 43570U 18061B   25134.77725135  .00000246  00000+0  80607-4 0  9993
2 43570  86.4004 223.1826 0002473  98.4423 261.7053 14.34217972356292
IRIDIUM 158             
1 43571U 18061C   25134.74553854  .00000067  00000+0  16878-4 0  9998
2 43571  86.4007 223.2054 0002262 100.9710 259.1740 14.34217930356258
IRIDIUM 165             
1 43572U 18061D   25134.77091613  .00000293  00000+0  97532-4 0  9999
2 43572  86.4009 223.2334 0002461  92.7499 267.3979 14.34220363356287
IRIDIUM 155             
1 43573U 18061E   25134.80262183 -.00000019  00000+0 -13883-4 0  9991
2 43573  86.4005 223.1093 0002291 102.9366 257.2085 14.34217562356253
IRIDIUM 154             
1 43574U 18061F   25134.78359370  .00000085  00000+0  23255-4 0  9999
2 43574  86.4009 223.2309 0002297  96.2906 263.8552 14.34217075356307
IRIDIUM 163             
1 43575U 18061G   25134.76456569 -.00000011  00000+0 -10837-4 0  9999
2 43575  86.4006 223.1669 0002013  98.4559 261.6866 14.34217620356273
IRIDIUM 156             
1 43576U 18061H   25134.80896487  .00000106  00000+0  30709-4 0  9995
2 43576  86.4005 223.1550 0002533 102.2563 257.8917 14.34217920356275
IRIDIUM 164             
1 43577U 18061J   25134.85970512 -.00000055  00000+0 -26832-4 0  9990
2 43577  86.4007 223.1678 0002375  91.6071 268.5397 14.34217489356325
